P/2015 D6 (Lemmon-PANSTARRS),e,20.2014,46.0011,125.1682,7.144098,0.0516158,0.36177539,108.9806,04/13.0/2021,2000,g 10.5,4.0
# From MPEC 2021-F20
C/2015 ER61 (PANSTARRS),e,6.3352,235.1370,68.3435,503.5556,0.0000872,0.99792717,0.0000,05/10.4979/2017,2000,g 11.0,2.0
# From MPEC 2018-BF5
C/2015 E61-B (PANSTARRS),e,6.3368,235.1720,68.4329,1475,0.0000174,0.99929133,0.0000,05/10.4755/2017,2000,g 13.5,2.0
# From MPEC 2021-FB5
P/2015 F1 (PANSTARRS),e,2.8027,40.3909,187.4827,3.522196,0.1491021,0.27792090,330.5693,04/13.0/2021,2000,g 12.5,4.0
# From MPC117068
C/2015 H2 (PANSTARRS),h,09/14.1847/2016,33.6508,350.6747,288.1185,1.005663,4.979971,2000,7.5,4.0
# From MPC100280
P/2015 HG16 (PANSTARRS),e,18.7875,58.6964,47.4810,4.748571,0.0952488,0.35168278,236.9129,04/13.0/2021,2000,g 12.5,4.0
# From MPC 95213
P/2015 K5 (PANSTARRS),e,39.9448,134.1747,106.3471,6.721535,0.0565590,0.55329633,120.9708,04/13.0/2021,2000,g 13.5,4.0
# From MPC107684
P/2015 M2 (PANSTARRS),e,3.9725,86.5842,225.5203,7.230523,0.0506932,0.18099684,103.4988,04/13.0/2021,2000,g  8.5,4.0
# From MPEC 2021-F20
C/2015 O1 (PANSTARRS),h,02/19.7419/2018,127.2238,299.8512,89.6346,1.001401,3.728935,2000,6.5,4.0
# From MPC 99819
P/2015 P4 (PANSTARRS),e,8.7176,104.7558,280.5691,6.049043,0.0662482,0.58480586,126.5211,04/13.0/2021,2000,g 14.0,4.0
# From MPC102952
P/2015 PD229 (Cameron-ISON),e,2.0263,342.6327,352.4709,7.183267,0.0511942,0.32818345,105.8103,04/13.0/2021,2000,g 11.5,2.0
# From MPC 99819
P/2015 Q1 (Scotti),e,22.3831,202.8879,199.8345,3.474649,0.1521730,0.47820146,313.3439,04/13.0/2021,2000,g 14.0,4.0
# From MPC 96867
P/2015 Q2 (Pimentel),e,146.5011,228.4302,244.5048,7.348675,0.0494755,0.75074950,101.2373,04/13.0/2021,2000,g 15.5,4.0
# From MPC 98562
P/2015 R1 (PANSTARRS),e,22.6807,48.4176,300.4429,5.880269,0.0691207,0.63419534,146.2304,04/13.0/2021,2000,g 14.0,4.0
# From MPC 95734
P/2015 R2 (PANSTARRS),e,15.4813,168.5985,149.7691,4.488073,0.1036607,0.45289698,220.9194,04/13.0/2021,2000,g 14.5,4.0
# From MPEC 2021-F20
C/2015 T2 (PANSTARRS),e,124.5531,51.0197,30.6543,1880,0.0000121,0.99631003,0.0000,05/18.3116/2017,2000,g  8.0,4.0
# From MPC 96280
P/2015 T3 (PANSTARRS),e,13.0937,120.5019,178.6330,4.326181,0.1095335,0.50818108,359.9227,12/21.0/2014,2000,g 14.0,4.0
# From MPC102953
C/2015 T4 (PANSTARRS),e,88.0073,251.8391,270.0744,79.64762,0.0013866,0.97112058,0.0000,06/16.7018/2016,2000,g 11.0,4.0
# From MPC102953
P/2015 TO19 (Lemmon-PANSTARRS),e,6.4995,321.6516,89.1210,4.555652,0.1013627,0.35825114,189.0109,04/13.0/2021,2000,g 14.0,4.0
# From MPC110080
P/2015 TP200 (LINEAR),e,8.7779,7.0015,82.5877,7.273905,0.0502404,0.53504277,81.8371,04/13.0/2021,2000,g 11.0,4.0
# From MPC101097
C/2015 TQ209 (LINEAR),e,11.3046,223.3770,282.1308,563.1612,0.0000737,0.99748567,0.0000,08/25.1692/2016,2000,g 10.5,4.0
# From MPEC 2021-F20
C/2015 V1 (PANSTARRS),e,139.2243,197.1791,179.6208,2207,0.0000095,0.99806465,0.0000,12/16.7535/2017,2000,g  6.5,4.0
# From MPC112390
C/2015 V2 (Johnson),h,06/11.7828/2017,49.8485,69.9130,165.0016,1.001855,1.645030,2000,5.0,4.0
# From MPC104791
C/2015 V4 (PANSTARRS),e,60.7902,179.9402,306.9544,18.46700,0.0124197,0.70437608,20.9752,04/13.0/2021,2000,g  8.5,4.0
# From MPC115881
C/2015 VL62 (Lemmon-Yeung-PANSTARRS),h,08/27.8639/2017,165.8176,95.1130,128.8228,1.001284,2.719132,2000,8.0,4.0
# From MPC102098
C/2015 WZ (PANSTARRS),e,134.6424,40.2040,66.7700,147.5292,0.0005500,0.99063404,0.0000,04/13.7156/2016,2000,g 15.0,4.0
# From MPC109142
C/2015 W1 (Gibbs),e,87.3644,114.3164,48.1613,2424,0.0000083,0.99907428,0.0000,05/13.4455/2016,2000,g 13.0,4.0
# From MPC101098
P/2015 W2 (Catalina),e,11.6070,294.2465,117.4915,7.295067,0.0500219,0.63404013,101.0978,04/13.0/2021,2000,g 13.0,4.0
# From MPC101098
P/2015 X1 (PANSTARRS),e,12.1515,161.7668,218.9208,3.632384,0.1423693,0.41905445,287.0882,04/13.0/2021,2000,g 16.0,4.0
# From MPEC 2021-F20
C/2015 XY1 (Lemmon),h,04/27.3492/2018,148.8540,281.6175,196.2094,1.002303,7.923284,2000,5.5,4.0
# From MPC 97498
P/2015 X3 (PANSTARRS),e,24.3887,77.3078,306.6604,5.008820,0.0879227,0.43904094,182.3980,04/13.0/2021,2000,g 15.0,4.0
# From MPC119995
C/2015 X5 (PANSTARRS),h,12/29.0473/2017,124.3083,122.3451,27.6349,1.001433,6.796359,2000,7.5,4.0
# From MPC115881
P/2015 X6 (PANSTARRS),e,4.5647,106.9470,329.8608,2.753478,0.2157157,0.17264104,38.3741,04/13.0/2021,2000,g 16.0,4.0
# From MPC109143
C/2015 X7 (ATLAS),e,57.5594,139.9327,348.3565,7229,0.0000016,0.99949101,0.0000,07/29.0527/2016,2000,g  9.0,4.0
# From MPC109143
C/2015 Y1 (LINEAR),e,71.1632,135.8185,24.6461,238.6909,0.0002673,0.98945905,0.0000,05/13.2213/2016,2000,g 12.0,4.0
# From MPEC 2021-F20
C/2016 A1 (PANSTARRS),h,11/22.2816/2017,121.2053,128.2075,10.2143,1.000963,5.321485,2000,6.0,4.0
# From MPC100282
P/2016 A2 (Christensen),e,26.4054,291.6160,141.4570,4.751807,0.0951515,0.27058497,202.3832,04/13.0/2021,2000,g 11.5,4.0
# From MPC115881
P/2016 A3 (PANSTARRS),e,8.5100,187.2494,341.0189,7.889146,0.0444794,0.38685551,64.2823,04/13.0/2021,2000,g 10.0,4.0
# From MPC102098
P/2016 A7 (PANSTARRS),e,16.6160,221.4919,352.6190,5.032543,0.0873017,0.56496236,163.7069,04/13.0/2021,2000,g 16.0,4.0
# From MPC106345
C/2016 A8 (LINEAR),e,148.2430,111.3487,130.4529,34.34851,0.0048960,0.94494318,8.2641,04/13.0/2021,2000,g 12.0,4.0
# From MPC107048
C/2016 B1 (NEOWISE),e,50.4433,232.0201,8.6863,437.5085,0.0001077,0.99264664,0.0000,12/04.4226/2016,2000,g  9.5,4.0
# From MPC109143
P/2016 BA14 (PANSTARRS),e,18.8935,180.5270,351.8883,3.025378,0.1872986,0.66522576,347.7651,04/13.0/2021,2000,g 21.0,4.0
# From MPC110494
C/2016 C1 (PANSTARRS),h,02/17.9467/2016,56.2399,181.8250,328.7018,1.001556,8.462500,2000,5.5,4.0
# From MPC101098
C/2016 C2 (NEOWISE),e,38.0246,24.4289,214.5904,65.93436,0.0018409,0.97618158,0.0000,04/18.9681/2016,2000,g 16.0,4.0
# From MPC110494
C/2016 E1 (PANSTARRS),h,06/04.4109/2017,131.8842,233.0899,47.4796,1.006366,8.178520,2000,6.5,4.0
# From MPC102098
P/2016 G1 (PANSTARRS),e,10.9683,204.0323,111.2035,2.583574,0.2373410,0.21121326,5.1920,04/13.0/2021,2000,g 14.0,4.0
# From MPEC 2017-D91
P/2016 J1-A (PANSTARRS),e,14.3267,199.8119,46.9417,3.173427,0.1743458,0.22802457,305.3383,04/13.0/2021,2000,g 16.5,4.0
# From MPEC 2017-A77
P/2016 J1-B (PANSTARRS),e,14.3295,199.8168,46.8328,3.173056,0.1743763,0.22787532,305.4665,04/13.0/2021,2000,g 17.0,4.0
# From MPC101099
C/2016 J2 (Denneau),e,130.3248,186.4479,318.6594,648.8416,0.0000596,0.99766035,0.0000,04/12.6654/2016,2000,g 17.0,4.0
# From MPC104792
C/2016 K1 (LINEAR),h,07/13.6125/2016,90.9453,325.6117,18.3280,1.000249,2.296242,2000,13.0,4.0
# From MPC119995
C/2016 M1 (PANSTARRS),e,90.9808,92.2159,209.9105,10422,0.0000009,0.99978766,0.0000,08/10.4354/2018,2000,g  5.0,4.0
# From MPEC 2021-F20
C/2016 N4 (MASTER),e,72.6282,353.9932,55.9409,2925,0.0000062,0.99890698,0.0000,09/16.7241/2017,2000,g  8.5,4.0
# From MPEC 2021-F20
C/2016 N6 (PANSTARRS),e,105.8412,298.9868,162.7046,1365,0.0000196,0.99804716,0.0000,07/17.9713/2018,2000,g  7.0,4.0
# From MPC102099
P/2016 P1 (PANSTARRS),e,24.4563,319.5648,270.0931,3.193456,0.1727081,0.28910372,349.9395,04/13.0/2021,2000,g 15.0,4.0
# From MPC102099
C/2016 P4 (PANSTARRS),e,29.8803,320.7238,356.2496,416.9819,0.0001158,0.98585408,0.0000,10/18.6847/2016,2000,g 10.5,4.0
# From MPEC 2021-FB5
C/2016 Q2 (PANSTARRS),h,05/11.8534/2021,109.3882,322.2958,84.5261,1.000547,7.081913,2000,6.0,4.0
# From MPC102955
C/2016 Q4 (Kowalski),e,7.2555,271.2914,99.4557,16.94226,0.0141334,0.58170985,16.5491,04/13.0/2021,2000,g  7.0,4.0
# From MPC119995
C/2016 R2 (PANSTARRS),e,58.2401,80.5576,33.1492,506.1090,0.0000866,0.99485930,0.0000,05/09.0722/2018,2000,g  7.0,4.0
# From MPC102099
C/2016 R3 (Borisov),e,53.0303,78.7767,118.1696,197.7978,0.0003543,0.99770558,0.0000,10/09.9794/2016,2000,g 18.0,4.0
# From MPC109144
P/2016 R4 (Gibbs),e,10.8743,168.2679,174.0361,5.331562,0.0800613,0.47632504,138.1640,04/13.0/2021,2000,g 12.5,4.0
# From MPC105543
P/2016 S1 (PANSTARRS),e,94.6806,227.5578,273.2795,8.278352,0.0413798,0.70997114,61.6160,04/13.0/2021,2000,g 12.0,4.0
# From MPC105238
C/2016 T1 (Matheny),e,129.8508,56.3417,137.4845,125.2668,0.0007030,0.98159371,0.0000,02/01.4136/2017,2000,g 14.5,4.0
# From MPC107685
C/2016 T2 (Matheny),e,81.4006,339.1853,92.2008,99.26329,0.0009966,0.98082486,0.0000,12/29.4468/2016,2000,g 14.5,4.0
# From MPC110082
C/2016 T3 (PANSTARRS),e,22.6841,271.7235,194.6249,130.7187,0.0006595,0.97975293,0.0000,09/06.4152/2017,2000,g 10.5,4.0
# From MPC103847
C/2016 U1 (NEOWISE),h,01/13.7678/2017,46.2856,61.5704,162.8140,1.000406,0.323699,2000,17.0,4.0
# From MPC106345
C/2016 VZ18 (PANSTARRS),e,23.9806,98.9210,36.4004,161.9403,0.0004783,0.99435360,0.0000,03/05.3094/2017,2000,g 19.5,4.0
# From MPC106345
P/2016 WM48 (Lemmon),e,117.4620,59.9052,36.0863,8.165117,0.0422436,0.78379617,63.7622,04/13.0/2021,2000,g 15.0,4.0
# From MPEC 2021-F20
C/2016 X1 (Lemmon),e,26.4528,256.4022,224.4928,1273,0.0000217,0.99406029,0.0000,04/28.3931/2019,2000,g  6.0,4.0
# From MPC108594
C/2017 A1 (PANSTARRS),e,49.7933,121.0429,1.9993,75.89446,0.0014907,0.96983022,2.1286,04/13.0/2021,2000,g 13.0,4.0
# From MPC108594
C/2017 A3 (Elenin),e,98.5258,97.8920,303.9839,43.42774,0.0034439,0.91146751,5.2798,04/13.0/2021,2000,g  9.5,4.0
# From MPC114598
C/2017 AB5 (PANSTARRS),e,32.4436,42.6338,78.3219,2294,0.0000090,0.99598440,0.0000,02/15.1689/2018,2000,g  5.5,4.0
# From MPEC 2021-F20
C/2017 B3 (LINEAR),h,02/02.5341/2019,54.1673,2.1789,284.7996,1.001515,3.923596,2000,6.0,4.0
# From MPC103847
P/2017 B4 (PANSTARRS),e,20.0584,121.4578,11.0197,4.410520,0.1064068,0.36495152,359.9130,01/05.0/2017,2000,g 14.5,4.0
# From MPC104793
C/2017 C1 (NEOWISE),e,65.7635,357.5610,110.0490,20.57408,0.0105614,0.92717667,16.3228,04/13.0/2021,2000,g 18.0,4.0
# From MPC107685
C/2017 C2 (PANSTARRS),e,118.5853,249.7606,138.5713,95.90751,0.0010494,0.97474674,0.0000,01/21.4158/2017,2000,g 14.0,4.0
# From MPC104793
P/2017 D1 (Fuls),e,20.7558,82.1803,8.0295,4.829763,0.0928572,0.43625145,162.9043,04/13.0/2021,2000,g 14.0,4.0
# From MPC112391
